[
    {
        "CCSDS_OMM_VERS": "3.0",
        "COMMENT": "GENERATED VIA SPACE-TRACK.ORG API",
        "CREATION_DATE": "2025-05-03T22:16:17",
        "ORIGINATOR": "18 SPCS",
        "OBJECT_NAME": "COSMOS 2529 (GLONASS)",
        "OBJECT_ID": "2018-086A",
        "CENTER_NAME": "EARTH",
        "REF_FRAME": "TEME",
        "TIME_SYSTEM": "UTC",
        "MEAN_ELEMENT_THEORY": "SGP4",
        "EPOCH": "2025-05-03T12:25:54.884640",
        "MEAN_MOTION": "2.13102010",
        "ECCENTRICITY": "0.00101910",
        "INCLINATION": "64.2915",
        "RA_OF_ASC_NODE": "206.4315",
        "ARG_OF_PERICENTER": "257.1149",
        "MEAN_ANOMALY": "102.8202",
        "EPHEMERIS_TYPE": "0",
        "CLASSIFICATION_TYPE": "U",
        "NORAD_CAT_ID": "43687",
        "ELEMENT_SET_NO": "999",
        "REV_AT_EPOCH": "5055",
        "BSTAR": "0.00000000000000",
        "MEAN_MOTION_DOT": "-0.00000017",
        "MEAN_MOTION_DDOT": "0.0000000000000",
        "SEMIMAJOR_AXIS": "25508.024",
        "PERIOD": "675.733",
        "APOAPSIS": "19155.884",
        "PERIAPSIS": "19103.893",
        "OBJECT_TYPE": "PAYLOAD",
        "RCS_SIZE": "LARGE",
        "COUNTRY_CODE": "CIS",
        "LAUNCH_DATE": "2018-11-03",
        "SITE": "PKMTR",
        "DECAY_DATE": null,
        "FILE": "4718000",
        "GP_ID": "286776159",
        "TLE_LINE0": "0 COSMOS 2529 (GLONASS)",
        "TLE_LINE1": "1 43687U 18086A   25123.51799635 -.00000017  00000-0  00000+0 0  9997",
        "TLE_LINE2": "2 43687  64.2915 206.4315 0010191 257.1149 102.8202  2.13102010 50559"
    }
]